DMSP 5D-3 F16 (USA 172) 
1 28054U 03048A   26164.86212308  .00000012  00000+0  29719-4 0  9997
2 28054  98.9891 188.6684 0007600 148.8473  24.9360 14.14482850169012
METEOSAT-9 (MSG-2)      
1 28912U 05049B   26164.84223330  .00000126  00000+0  00000+0 0  9991
2 28912   9.3538  54.2002 0001543 346.3460 210.4525  1.00270562  6967
DMSP 5D-3 F17 (USA 191) 
1 29522U 06050A   26164.84626458  .00000034  00000+0  39678-4 0  9996
2 29522  98.7378 171.4847 0011242  68.0770 292.1598 14.14992648 11954
FENGYUN 3A              
1 32958U 08026A   26164.80508457  .00000056  00000+0  46922-4 0  9996
2 32958  98.6883 105.7015 0009460 132.4960 227.7017 14.19570497934924
GOES 14                 
1 35491U 09033A   26164.86169529 -.00000269  00000+0  00000+0 0  9998
2 35491   1.6812  83.0802 0001718  10.1971 262.8497  1.00111848  6557
DMSP 5D-3 F18 (USA 210) 
1 35951U 09057A   26164.81742155  .00000220  00000+0  13705-3 0  9998
2 35951  98.9037 145.5939 0009852 260.2139  99.7922 14.14895069859113
EWS-G2 (GOES 15)        
1 36411U 10008A   26164.83354747  .00000027  00000+0  00000+0 0  9991
2 36411   1.2681  82.9176 0005359  41.6499 141.3301  1.00275701 59609
COMS 1                  
1 36744U 10032A   26164.85864462  .00000003  00000+0  00000+0 0  9993
2 36744   4.7961  75.3929 0011447  11.6277 210.9948  0.99162789 51054
FENGYUN 3B              
1 37214U 10059A   26164.86071012  .00000311  00000+0  18434-3 0  9993
2 37214  98.9626 210.8609 0021738 193.6696 340.1942 14.14841314806958
SUOMI NPP               
1 37849U 11061A   26164.81623941  .00000045  00000+0  42609-4 0  9996
2 37849  98.7954 105.7153 0001723  14.7283 345.3942 14.19516725757960
METEOSAT-10 (MSG-3)     
1 38552U 12035B   26164.83330661  .00000002  00000+0  00000+0 0  9993
2 38552   4.6635  61.0338 0001424 328.4419 172.9579  1.00276213 50829
METOP-B                 
1 38771U 12049A   26164.88123198  .00000100  00000+0  65635-4 0  9990
2 38771  98.6505 216.4463 0002437  27.7599 332.3708 14.21431861712795
INSAT-3D                
1 39216U 13038B   26164.85883528 -.00000330  00000+0  00000+0 0  9997
2 39216   1.9172  82.5797 0000562 308.3289 309.9638  1.00270701 47048
FENGYUN 3C              
1 39260U 13052A   26164.86350664  .00000063  00000+0  53069-4 0  9993
2 39260  98.4985 138.8909 0015405  36.8049 323.4180 14.15754417658096
METEOR-M 2              
1 40069U 14037A   26164.90766056  .00000211  00000+0  11559-3 0  9999
2 40069  98.5105 140.7616 0006840  52.4583 307.7215 14.21461231618857
HIMAWARI-8              
1 40267U 14060A   26164.86108861 -.00000265  00000+0  00000+0 0  9999
2 40267   0.0077 311.9279 0000981 135.1683 265.7230  1.00272768 42725
FENGYUN 2G              
1 40367U 14090A   26164.78685797 -.00000297  00000+0  00000+0 0  9997
2 40367   5.6288  72.8570 0003976 153.7441  58.4326  1.00273878 41964
METEOSAT-11 (MSG-4)     
1 40732U 15034A   26164.83512661  .00000073  00000+0  00000+0 0  9998
2 40732   3.1933  71.1300 0001766   9.1771 132.0502  1.00279310  7186
ELEKTRO-L 2             
1 41105U 15074A   26163.97488203 -.00000109  00000+0  00000+0 0  9996
2 41105   6.6819  70.5757 0000736 255.3930 271.7863  1.00270779 38465
SENTINEL-3A             
1 41335U 16011A   26164.85032624  .00000102  00000+0  60272-4 0  9997
2 41335  98.6249 232.2818 0001384 102.7716 257.3619 14.26739130537589
INSAT-3DR               
1 41752U 16054A   26164.84236492 -.00000066  00000+0  00000+0 0  9993
2 41752   0.0975  86.8423 0010620 187.1166   5.4214  1.00270821 35782
HIMAWARI-9              
1 41836U 16064A   26164.86108861 -.00000265  00000+0  00000+0 0  9998
2 41836   0.0479 148.4555 0000809 350.4524 214.0275  1.00270182 35174
GOES 16                 
1 41866U 16071A   26164.66993006 -.00000080  00000+0  00000+0 0  9995
2 41866   0.3318  85.5379 0000211 287.0700  25.8595  1.00270040 35069
FENGYUN 4A              
1 41882U 16077A   26164.85770860 -.00000348  00000+0  00000+0 0  9998
2 41882   2.3129  80.3235 0008669 152.7717 101.6282  1.00270404 34894
CYGFM05                 
1 41884U 16078A   26164.71624326  .00024006  00000+0  32685-3 0  9995
2 41884  34.9574 283.5706 0006753 115.6149 244.5273 15.56530665528215
CYGFM04                 
1 41885U 16078B   26164.63366531  .00029269  00000+0  33168-3 0  9991
2 41885  34.9325 251.9875 0006262 161.5646 198.5308 15.61331969528447
CYGFM02                 
1 41886U 16078C   26164.64112448  .00034896  00000+0  35159-3 0  9993
2 41886  34.9406 246.5765 0007226 162.7791 197.3182 15.64293881528610
CYGFM01                 
1 41887U 16078D   26164.70646843  .00024516  00000+0  32548-3 0  9999
2 41887  34.9405 284.7218 0006544 108.5594 251.5842 15.57202195528164
CYGFM08                 
1 41888U 16078E   26164.67190044  .00028443  00000+0  34112-3 0  9995
2 41888  34.9434 264.6224 0007877 142.8564 217.2707 15.59850919528422
CYGFM07                 
1 41890U 16078G   26164.63126031  .00027813  00000+0  33250-3 0  9991
2 41890  34.9447 253.2380 0006628 160.3084 199.7898 15.59949441528447
CYGFM03                 
1 41891U 16078H   26164.66624451  .00027393  00000+0  32763-3 0  9995
2 41891  34.9403 254.9438 0006042 147.8515 212.2580 15.59943966528424
